start=new Date('2022-05-06T00:00:00.000Z').valueOf();
sats=[{"RA_OF_ASC_NODE":"320.9130","SITE":"AFETR","REV_AT_EPOCH":"357","MEAN_ANOMALY":"305.3039","EPOCH":"2022-05-05T22:00:00.999936","MEAN_MOTION_DDOT":"0.0000000000000","NORAD_CAT_ID":"49752","ECCENTRICITY":"0.00016490","CLASSIFICATION_TYPE":"U","TLE_LINE2":"2 49752  53.2179 320.9130 0001649  56.1346 305.3039 15.08816076  3579","TIME_SYSTEM":"UTC","EPHEMERIS_TYPE":"0","APOAPSIS":"540.959","ELEMENT_SET_NO":"999","TLE_LINE1":"1 49752U 21115AE  22125.91667824  .00031674  00000-0  20006-2 0  9993","SEMIMAJOR_AXIS":"6917.954","GP_ID":"202804649","MEAN_MOTION":"15.08816076","BSTAR":"0.00200060000000","MEAN_ELEMENT_THEORY":"SGP4","CENTER_NAME":"EARTH","ARG_OF_PERICENTER":"56.1346","PERIAPSIS":"538.678","RCS_SIZE":"LARGE","COUNTRY_CODE":"US","OBJECT_NAME":"STARLINK-3209","INCLINATION":"53.2179","REF_FRAME":"TEME","DECAY_DATE":null,"PERIOD":"95.439","OBJECT_TYPE":"PAYLOAD","MEAN_MOTION_DOT":"0.00031674","FILE":"3430750","LAUNCH_DATE":"2021-12-02","OBJECT_ID":"2021-115AE"},{"FILE":"3430683","MEAN_MOTION_DOT":"0.00012240","LAUNCH_DATE":"2021-12-02","OBJECT_ID":"2021-115AF","REF_FRAME":"TEME","INCLINATION":"53.2204","OBJECT_NAME":"STARLINK-3200","COUNTRY_CODE":"US","PERIAPSIS":"538.365","RCS_SIZE":"LARGE","ARG_OF_PERICENTER":"42.6915","OBJECT_TYPE":"PAYLOAD","PERIOD":"95.439","DECAY_DATE":null,"SEMIMAJOR_AXIS":"6917.937","GP_ID":"202780251","ELEMENT_SET_NO":"999","TLE_LINE1":"1 49753U 21115AF  22125.91667824  .00012240  00000-0  78620-3 0  9998","APOAPSIS":"541.238","EPHEMERIS_TYPE":"0","CENTER_NAME":"EARTH","MEAN_ELEMENT_THEORY":"SGP4","BSTAR":"0.00078620000000","MEAN_MOTION":"15.08821596","ECCENTRICITY":"0.00020770","NORAD_CAT_ID":"49753","MEAN_MOTION_DDOT":"0.0000000000000","EPOCH":"2022-05-05T22:00:00.999936","MEAN_ANOMALY":"63.7424","REV_AT_EPOCH":"2472","SITE":"AFETR","RA_OF_ASC_NODE":"330.8981","TIME_SYSTEM":"UTC","CLASSIFICATION_TYPE":"U","TLE_LINE2":"2 49753  53.2204 330.8981 0002077  42.6915  63.7424 15.08821596 24727"},{"INCLINATION":"53.2107","REF_FRAME":"TEME","OBJECT_NAME":"STARLINK-3193","PERIAPSIS":"533.988","RCS_SIZE":"LARGE","COUNTRY_CODE":"US","ARG_OF_PERICENTER":"292.7765","OBJECT_TYPE":"PAYLOAD","PERIOD":"95.440","DECAY_DATE":null,"FILE":"3430750","MEAN_MOTION_DOT":"0.00029661","LAUNCH_DATE":"2021-12-02","OBJECT_ID":"2021-115AG","ECCENTRICITY":"0.00084600","NORAD_CAT_ID":"49754","EPOCH":"2022-05-05T22:00:00.999936","MEAN_MOTION_DDOT":"0.0000000000000","MEAN_ANOMALY":"103.4741","RA_OF_ASC_NODE":"320.9161","SITE":"AFETR","REV_AT_EPOCH":"357","TIME_SYSTEM":"UTC","CLASSIFICATION_TYPE":"U","TLE_LINE2":"2 49754  53.2107 320.9161 0008460 292.7765 103.4741 15.08808699  3576","SEMIMAJOR_AXIS":"6917.976","GP_ID":"202805642","EPHEMERIS_TYPE":"0","APOAPSIS":"545.694","ELEMENT_SET_NO":"999","TLE_LINE1":"1 49754U 21115AG  22125.91667824  .00029661  00000-0  18742-2 0  9992","CENTER_NAME":"EARTH","MEAN_ELEMENT_THEORY":"SGP4","BSTAR":"0.00187420000000","MEAN_MOTION":"15.08808699"},{"RA_OF_ASC_NODE":"330.8941","REV_AT_EPOCH":"2472","SITE":"AFETR","MEAN_ANOMALY":"34.8120","EPOCH":"2022-05-05T22:00:00.999936","MEAN_MOTION_DDOT":"0.0000000000000","ECCENTRICITY":"0.00026890","NORAD_CAT_ID":"49755","CLASSIFICATION_TYPE":"U","TLE_LINE2":"2 49755  53.2180 330.8941 0002689  31.6080  34.8120 15.08827919 24725","TIME_SYSTEM":"UTC","EPHEMERIS_TYPE":"0","APOAPSIS":"541.643","TLE_LINE1":"1 49755U 21115AH  22125.91667824  .00020131  00000-0  12797-2 0  9990","ELEMENT_SET_NO":"999","GP_ID":"202780255","SEMIMAJOR_AXIS":"6917.917","MEAN_MOTION":"15.08827919","BSTAR":"0.00127970000000","MEAN_ELEMENT_THEORY":"SGP4","CENTER_NAME":"EARTH","ARG_OF_PERICENTER":"31.6080","PERIAPSIS":"537.922","RCS_SIZE":"LARGE","COUNTRY_CODE":"US","OBJECT_NAME":"STARLINK-3210","INCLINATION":"53.2180","REF_FRAME":"TEME","DECAY_DATE":null,"OBJECT_TYPE":"PAYLOAD","PERIOD":"95.438","MEAN_MOTION_DOT":"0.00020131","FILE":"3430684","LAUNCH_DATE":"2021-12-02","OBJECT_ID":"2021-115AH"},{"MEAN_ELEMENT_THEORY":"SGP4","CENTER_NAME":"EARTH","MEAN_MOTION":"15.08818237","BSTAR":"0.00212580000000","GP_ID":"202780759","SEMIMAJOR_AXIS":"6917.947","ELEMENT_SET_NO":"999","TLE_LINE1":"1 49756U 21115AJ  22125.91667824  .00033686  00000-0  21258-2 0  9992","APOAPSIS":"540.929","EPHEMERIS_TYPE":"0","TLE_LINE2":"2 49756  53.2151 320.9135 0001615  66.6344 234.7959 15.08818237 24867","CLASSIFICATION_TYPE":"U","TIME_SYSTEM":"UTC","MEAN_MOTION_DDOT":"0.0000000000000","EPOCH":"2022-05-05T22:00:00.999936","ECCENTRICITY":"0.00016150","NORAD_CAT_ID":"49756","REV_AT_EPOCH":"2486","SITE":"AFETR","RA_OF_ASC_NODE":"320.9135","MEAN_ANOMALY":"234.7959","OBJECT_ID":"2021-115AJ","FILE":"3430684","LAUNCH_DATE":"2021-12-02","MEAN_MOTION_DOT":"0.00033686","OBJECT_TYPE":"PAYLOAD","PERIOD":"95.439","DECAY_DATE":null,"OBJECT_NAME":"STARLINK-3207","REF_FRAME":"TEME","INCLINATION":"53.2151","ARG_OF_PERICENTER":"66.6344","COUNTRY_CODE":"US","RCS_SIZE":"LARGE","PERIAPSIS":"538.695"},{"LAUNCH_DATE":"2021-12-02","FILE":"3430750","MEAN_MOTION_DOT":"0.00032881","OBJECT_ID":"2021-115AK","ARG_OF_PERICENTER":"56.2802","COUNTRY_CODE":"US","RCS_SIZE":"LARGE","PERIAPSIS":"538.709","OBJECT_NAME":"STARLINK-3197","REF_FRAME":"TEME","INCLINATION":"53.2152","DECAY_DATE":null,"PERIOD":"95.439","OBJECT_TYPE":"PAYLOAD","TLE_LINE1":"1 49757U 21115AK  22125.91667824  .00032881  00000-0  20760-2 0  9996","ELEMENT_SET_NO":"999","EPHEMERIS_TYPE":"0","APOAPSIS":"540.952","SEMIMAJOR_AXIS":"6917.966","GP_ID":"202805401","MEAN_MOTION":"15.08812129","BSTAR":"0.00207600000000","MEAN_ELEMENT_THEORY":"SGP4","CENTER_NAME":"EARTH","REV_AT_EPOCH":"356","SITE":"AFETR","RA_OF_ASC_NODE":"320.9175","MEAN_ANOMALY":"285.1629","MEAN_MOTION_DDOT":"0.0000000000000","EPOCH":"2022-05-05T22:00:00.999936","NORAD_CAT_ID":"49757","ECCENTRICITY":"0.00016210","TLE_LINE2":"2 49757  53.2152 320.9175 0001621  56.2802 285.1629 15.08812129  3566","CLASSIFICATION_TYPE":"U","TIME_SYSTEM":"UTC"},{"APOAPSIS":"540.932","EPHEMERIS_TYPE":"0","TLE_LINE1":"1 49758U 21115AL  22125.91667824  .00021910  00000-0  13915-2 0  9992","ELEMENT_SET_NO":"999","SEMIMAJOR_AXIS":"6917.965","GP_ID":"202806141","MEAN_MOTION":"15.08812179","BSTAR":"0.00139150000000","MEAN_ELEMENT_THEORY":"SGP4","CENTER_NAME":"EARTH","RA_OF_ASC_NODE":"320.9112","SITE":"AFETR","REV_AT_EPOCH":"356","MEAN_ANOMALY":"204.6779","EPOCH":"2022-05-05T22:00:00.999936","MEAN_MOTION_DDOT":"0.0000000000000","NORAD_CAT_ID":"49758","ECCENTRICITY":"0.00015930","TLE_LINE2":"2 49758  53.2159 320.9112 0001593  56.7733 204.6779 15.08812179  3568","CLASSIFICATION_TYPE":"U","TIME_SYSTEM":"UTC","FILE":"3430750","LAUNCH_DATE":"2021-12-02","MEAN_MOTION_DOT":"0.00021910","OBJECT_ID":"2021-115AL","ARG_OF_PERICENTER":"56.7733","PERIAPSIS":"538.728","RCS_SIZE":"LARGE","COUNTRY_CODE":"US","OBJECT_NAME":"STARLINK-3194","INCLINATION":"53.2159","REF_FRAME":"TEME","DECAY_DATE":null,"OBJECT_TYPE":"PAYLOAD","PERIOD":"95.439"},{"OBJECT_ID":"2021-115AM","FILE":"3430692","LAUNCH_DATE":"2021-12-02","MEAN_MOTION_DOT":"0.00006286","OBJECT_TYPE":"PAYLOAD","PERIOD":"95.438","DECAY_DATE":null,"OBJECT_NAME":"STARLINK-3204","INCLINATION":"53.2166","REF_FRAME":"TEME","ARG_OF_PERICENTER":"46.6736","PERIAPSIS":"538.720","RCS_SIZE":"LARGE","COUNTRY_CODE":"US","MEAN_ELEMENT_THEORY":"SGP4","CENTER_NAME":"EARTH","MEAN_MOTION":"15.08832840","BSTAR":"0.00041274000000","GP_ID":"202780240","SEMIMAJOR_AXIS":"6917.902","APOAPSIS":"540.815","EPHEMERIS_TYPE":"0","TLE_LINE1":"1 49759U 21115AM  22125.91667824  .00006286  00000-0  41274-3 0  9992","ELEMENT_SET_NO":"999","TLE_LINE2":"2 49759  53.2166 320.9120 0001514  46.6736 274.7930 15.08832840 24860","CLASSIFICATION_TYPE":"U","TIME_SYSTEM":"UTC","EPOCH":"2022-05-05T22:00:00.999936","MEAN_MOTION_DDOT":"0.0000000000000","NORAD_CAT_ID":"49759","ECCENTRICITY":"0.00015140","RA_OF_ASC_NODE":"320.9120","SITE":"AFETR","REV_AT_EPOCH":"2486","MEAN_ANOMALY":"274.7930"},{"REF_FRAME":"TEME","INCLINATION":"53.2197","OBJECT_NAME":"STARLINK-3199","COUNTRY_CODE":"US","RCS_SIZE":"LARGE","PERIAPSIS":"538.540","ARG_OF_PERICENTER":"49.4264","OBJECT_TYPE":"PAYLOAD","PERIOD":"95.439","DECAY_DATE":null,"MEAN_MOTION_DOT":"0.00029311","FILE":"3430684","LAUNCH_DATE":"2021-12-02","OBJECT_ID":"2021-115AN","NORAD_CAT_ID":"49760","ECCENTRICITY":"0.00018680","MEAN_MOTION_DDOT":"0.0000000000000","EPOCH":"2022-05-05T22:00:00.999936","MEAN_ANOMALY":"172.0291","SITE":"AFETR","REV_AT_EPOCH":"2487","RA_OF_ASC_NODE":"320.8826","TIME_SYSTEM":"UTC","TLE_LINE2":"2 49760  53.2197 320.8826 0001868  49.4264 172.0291 15.08811474 24878","CLASSIFICATION_TYPE":"U","SEMIMAJOR_AXIS":"6917.968","GP_ID":"202780260","TLE_LINE1":"1 49760U 21115AN  22125.91667824  .00029311  00000-0  18535-2 0  9991","ELEMENT_SET_NO":"999","APOAPSIS":"541.125","EPHEMERIS_TYPE":"0","CENTER_NAME":"EARTH","MEAN_ELEMENT_THEORY":"SGP4","BSTAR":"0.00185350000000","MEAN_MOTION":"15.08811474"},{"INCLINATION":"53.2170","REF_FRAME":"TEME","OBJECT_NAME":"STARLINK-3203","RCS_SIZE":"LARGE","PERIAPSIS":"538.678","COUNTRY_CODE":"US","ARG_OF_PERICENTER":"56.2552","PERIOD":"95.437","OBJECT_TYPE":"PAYLOAD","DECAY_DATE":null,"FILE":"3430750","LAUNCH_DATE":"2021-12-02","MEAN_MOTION_DOT":"0.00003754","OBJECT_ID":"2021-115AP","ECCENTRICITY":"0.00015210","NORAD_CAT_ID":"49761","EPOCH":"2022-05-05T22:00:00.999936","MEAN_MOTION_DDOT":"0.0000000000000","MEAN_ANOMALY":"225.1991","RA_OF_ASC_NODE":"320.9144","REV_AT_EPOCH":"356","SITE":"AFETR","TIME_SYSTEM":"UTC","TLE_LINE2":"2 49761  53.2170 320.9144 0001521  56.2552 225.1991 15.08845037  3568","CLASSIFICATION_TYPE":"U","SEMIMAJOR_AXIS":"6917.865","GP_ID":"202805900","EPHEMERIS_TYPE":"0","APOAPSIS":"540.782","ELEMENT_SET_NO":"999","TLE_LINE1":"1 49761U 21115AP  22125.91667824  .00003754  00000-0  25381-3 0  9993","CENTER_NAME":"EARTH","MEAN_ELEMENT_THEORY":"SGP4","BSTAR":"0.00025381000000","MEAN_MOTION":"15.08845037"}];
